start=new Date('2022-08-11T00:00:00.000Z').valueOf();
sats=[{"NORAD_CAT_ID":"46564","LAUNCH_DATE":"2020-10-06","DECAY_DATE":null,"COUNTRY_CODE":"US","APOAPSIS":"548.212","EPHEMERIS_TYPE":"0","ECCENTRICITY":"0.00014110","GP_ID":"209967123","ELEMENT_SET_NO":"999","ARG_OF_PERICENTER":"76.7021","FILE":"3533800","TIME_SYSTEM":"UTC","INCLINATION":"53.0540","OBJECT_TYPE":"PAYLOAD","REV_AT_EPOCH":"10271","BSTAR":"-0.00006176900000","MEAN_ANOMALY":"283.4125","EPOCH":"2022-08-10T03:52:15.407616","PERIAPSIS":"546.258","REF_FRAME":"TEME","SITE":"AFETR","MEAN_ELEMENT_THEORY":"SGP4","RCS_SIZE":"LARGE","OBJECT_NAME":"STARLINK-1733","TLE_LINE2":"2 46564  53.0540 266.3353 0001411  76.7021 283.4125 15.06392942102719","CLASSIFICATION_TYPE":"U","MEAN_MOTION_DDOT":"0.0000000000000","OBJECT_ID":"2020-070AJ","PERIOD":"95.593","CENTER_NAME":"EARTH","RA_OF_ASC_NODE":"266.3353","TLE_LINE1":"1 46564U 20070AJ  22222.16128944 -.00001201  00000-0 -61769-4 0  9998","SEMIMAJOR_AXIS":"6925.370","MEAN_MOTION_DOT":"-0.00001201","MEAN_MOTION":"15.06392942"},{"OBJECT_ID":"2020-070AK","PERIOD":"95.593","MEAN_MOTION_DDOT":"0.0000000000000","TLE_LINE1":"1 46565U 20070AK  22222.60360287 -.00002211  00000-0 -12962-3 0  9998","CENTER_NAME":"EARTH","RA_OF_ASC_NODE":"264.3647","SEMIMAJOR_AXIS":"6925.369","MEAN_MOTION_DOT":"-0.00002211","MEAN_MOTION":"15.06393292","SITE":"AFETR","REF_FRAME":"TEME","RCS_SIZE":"LARGE","MEAN_ELEMENT_THEORY":"SGP4","CLASSIFICATION_TYPE":"U","OBJECT_NAME":"STARLINK-1735","TLE_LINE2":"2 46565  53.0543 264.3647 0001383  75.3686 284.7456 15.06393292102773","TIME_SYSTEM":"UTC","INCLINATION":"53.0543","FILE":"3533963","ARG_OF_PERICENTER":"75.3686","MEAN_ANOMALY":"284.7456","BSTAR":"-0.00012962000000","REV_AT_EPOCH":"10277","OBJECT_TYPE":"PAYLOAD","EPOCH":"2022-08-10T14:29:11.287968","PERIAPSIS":"546.276","LAUNCH_DATE":"2020-10-06","NORAD_CAT_ID":"46565","EPHEMERIS_TYPE":"0","COUNTRY_CODE":"US","DECAY_DATE":null,"APOAPSIS":"548.192","GP_ID":"209993914","ECCENTRICITY":"0.00013830","ELEMENT_SET_NO":"999"},{"PERIAPSIS":"546.119","EPOCH":"2022-08-10T14:07:58.427616","BSTAR":"-0.00020132000000","REV_AT_EPOCH":"10245","MEAN_ANOMALY":"281.0671","OBJECT_TYPE":"PAYLOAD","INCLINATION":"53.0556","TIME_SYSTEM":"UTC","FILE":"3533740","ARG_OF_PERICENTER":"79.0502","ELEMENT_SET_NO":"999","GP_ID":"209944627","ECCENTRICITY":"0.00016370","EPHEMERIS_TYPE":"0","APOAPSIS":"548.386","COUNTRY_CODE":"US","DECAY_DATE":null,"LAUNCH_DATE":"2020-10-06","NORAD_CAT_ID":"46566","MEAN_MOTION":"15.06387238","SEMIMAJOR_AXIS":"6925.388","MEAN_MOTION_DOT":"-0.00003278","TLE_LINE1":"1 46566U 20070AL  22222.58887069 -.00003278  00000-0 -20132-3 0  9990","RA_OF_ASC_NODE":"264.4166","CENTER_NAME":"EARTH","PERIOD":"95.593","OBJECT_ID":"2020-070AL","MEAN_MOTION_DDOT":"0.0000000000000","CLASSIFICATION_TYPE":"U","TLE_LINE2":"2 46566  53.0556 264.4166 0001637  79.0502 281.0671 15.06387238102452","OBJECT_NAME":"STARLINK-1740","RCS_SIZE":"LARGE","MEAN_ELEMENT_THEORY":"SGP4","SITE":"AFETR","REF_FRAME":"TEME"},{"MEAN_MOTION":"15.06388838","MEAN_MOTION_DOT":"-0.00000788","SEMIMAJOR_AXIS":"6925.383","RA_OF_ASC_NODE":"264.8749","CENTER_NAME":"EARTH","TLE_LINE1":"1 46567U 20070AM  22222.48565655 -.00000788  00000-0 -34021-4 0  9990","MEAN_MOTION_DDOT":"0.0000000000000","PERIOD":"95.593","OBJECT_ID":"2020-070AM","TLE_LINE2":"2 46567  53.0531 264.8749 0001376  81.6074 278.5071 15.06388838102766","OBJECT_NAME":"STARLINK-1741","CLASSIFICATION_TYPE":"U","MEAN_ELEMENT_THEORY":"SGP4","RCS_SIZE":"LARGE","REF_FRAME":"TEME","SITE":"AFETR","PERIAPSIS":"546.295","EPOCH":"2022-08-10T11:39:20.725920","OBJECT_TYPE":"PAYLOAD","REV_AT_EPOCH":"10276","BSTAR":"-0.00003402100000","MEAN_ANOMALY":"278.5071","ARG_OF_PERICENTER":"81.6074","FILE":"3533800","INCLINATION":"53.0531","TIME_SYSTEM":"UTC","ELEMENT_SET_NO":"999","ECCENTRICITY":"0.00013760","GP_ID":"209966380","APOAPSIS":"548.201","DECAY_DATE":null,"COUNTRY_CODE":"US","EPHEMERIS_TYPE":"0","NORAD_CAT_ID":"46567","LAUNCH_DATE":"2020-10-06"},{"MEAN_ANOMALY":"300.9916","BSTAR":"-0.00001901600000","REV_AT_EPOCH":"10276","OBJECT_TYPE":"PAYLOAD","INCLINATION":"53.0541","TIME_SYSTEM":"UTC","FILE":"3533800","ARG_OF_PERICENTER":"59.1216","PERIAPSIS":"546.239","EPOCH":"2022-08-10T12:00:34.720704","EPHEMERIS_TYPE":"0","APOAPSIS":"548.258","COUNTRY_CODE":"US","DECAY_DATE":null,"LAUNCH_DATE":"2020-10-06","NORAD_CAT_ID":"46569","ELEMENT_SET_NO":"999","GP_ID":"209966624","ECCENTRICITY":"0.00014580","TLE_LINE1":"1 46569U 20070AP  22222.50040186 -.00000565  00000-0 -19016-4 0  9992","RA_OF_ASC_NODE":"264.8172","CENTER_NAME":"EARTH","PERIOD":"95.593","OBJECT_ID":"2020-070AP","MEAN_MOTION_DDOT":"0.0000000000000","MEAN_MOTION":"15.06388581","SEMIMAJOR_AXIS":"6925.384","MEAN_MOTION_DOT":"-0.00000565","RCS_SIZE":"LARGE","MEAN_ELEMENT_THEORY":"SGP4","SITE":"AFETR","REF_FRAME":"TEME","CLASSIFICATION_TYPE":"U","TLE_LINE2":"2 46569  53.0541 264.8172 0001458  59.1216 300.9916 15.06388581102761","OBJECT_NAME":"STARLINK-1747"},{"OBJECT_NAME":"STARLINK-1748","TLE_LINE2":"2 46570  53.0545 263.9750 0000408 310.0783  50.0171 15.08707566102778","CLASSIFICATION_TYPE":"U","MEAN_ELEMENT_THEORY":"SGP4","RCS_SIZE":"LARGE","REF_FRAME":"TEME","SITE":"AFETR","MEAN_MOTION":"15.08707566","SEMIMAJOR_AXIS":"6918.285","MEAN_MOTION_DOT":"0.00007835","CENTER_NAME":"EARTH","RA_OF_ASC_NODE":"263.9750","TLE_LINE1":"1 46570U 20070AQ  22222.54287211  .00007835  00000-0  51160-3 0  9990","MEAN_MOTION_DDOT":"0.0000000000000","OBJECT_ID":"2020-070AQ","PERIOD":"95.446","ELEMENT_SET_NO":"999","ECCENTRICITY":"0.00004080","GP_ID":"209965381","COUNTRY_CODE":"US","DECAY_DATE":null,"APOAPSIS":"540.432","EPHEMERIS_TYPE":"0","NORAD_CAT_ID":"46570","LAUNCH_DATE":"2020-10-06","PERIAPSIS":"539.868","EPOCH":"2022-08-10T13:01:44.150304","OBJECT_TYPE":"PAYLOAD","BSTAR":"0.00051160000000","MEAN_ANOMALY":"50.0171","REV_AT_EPOCH":"10277","FILE":"3533800","ARG_OF_PERICENTER":"310.0783","TIME_SYSTEM":"UTC","INCLINATION":"53.0545"},{"MEAN_MOTION_DDOT":"0.0000000000000","OBJECT_ID":"2020-070AS","PERIOD":"95.594","CENTER_NAME":"EARTH","RA_OF_ASC_NODE":"284.0423","TLE_LINE1":"1 46572U 20070AS  22222.67086479 -.00003758  00000-0 -23365-3 0  9997","MEAN_MOTION_DOT":"-0.00003758","SEMIMAJOR_AXIS":"6925.416","MEAN_MOTION":"15.06378046","REF_FRAME":"TEME","SITE":"AFETR","MEAN_ELEMENT_THEORY":"SGP4","RCS_SIZE":"LARGE","OBJECT_NAME":"STARLINK-1531","TLE_LINE2":"2 46572  53.0538 284.0423 0001436  62.9333 297.1803 15.06378046102501","CLASSIFICATION_TYPE":"U","ARG_OF_PERICENTER":"62.9333","FILE":"3533963","TIME_SYSTEM":"UTC","INCLINATION":"53.0538","OBJECT_TYPE":"PAYLOAD","REV_AT_EPOCH":"10250","BSTAR":"-0.00023365000000","MEAN_ANOMALY":"297.1803","EPOCH":"2022-08-10T16:06:02.717856","PERIAPSIS":"546.286","NORAD_CAT_ID":"46572","LAUNCH_DATE":"2020-10-06","COUNTRY_CODE":"US","DECAY_DATE":null,"APOAPSIS":"548.275","EPHEMERIS_TYPE":"0","ECCENTRICITY":"0.00014360","GP_ID":"209994165","ELEMENT_SET_NO":"999"},{"BSTAR":"-0.00009883000000","MEAN_ANOMALY":"303.2598","REV_AT_EPOCH":"10264","OBJECT_TYPE":"PAYLOAD","TIME_SYSTEM":"UTC","INCLINATION":"53.0547","ARG_OF_PERICENTER":"56.8529","FILE":"3533800","PERIAPSIS":"546.275","EPOCH":"2022-08-10T04:24:44.714304","EPHEMERIS_TYPE":"0","DECAY_DATE":null,"COUNTRY_CODE":"US","APOAPSIS":"548.277","LAUNCH_DATE":"2020-10-06","NORAD_CAT_ID":"46573","ELEMENT_SET_NO":"999","GP_ID":"209965881","ECCENTRICITY":"0.00014450","TLE_LINE1":"1 46573U 20070AT  22222.18385086 -.00001752  00000-0 -98830-4 0  9992","CENTER_NAME":"EARTH","RA_OF_ASC_NODE":"271.2278","OBJECT_ID":"2020-070AT","PERIOD":"95.593","MEAN_MOTION_DDOT":"0.0000000000000","MEAN_MOTION":"15.06379558","MEAN_MOTION_DOT":"-0.00001752","SEMIMAJOR_AXIS":"6925.411","RCS_SIZE":"LARGE","MEAN_ELEMENT_THEORY":"SGP4","SITE":"AFETR","REF_FRAME":"TEME","CLASSIFICATION_TYPE":"U","OBJECT_NAME":"STARLINK-1650","TLE_LINE2":"2 46573  53.0547 271.2278 0001445  56.8529 303.2598 15.06379558102641"},{"OBJECT_TYPE":"PAYLOAD","REV_AT_EPOCH":"10271","BSTAR":"-0.00000678700000","MEAN_ANOMALY":"286.9795","FILE":"3533963","ARG_OF_PERICENTER":"73.1352","INCLINATION":"53.0551","TIME_SYSTEM":"UTC","PERIAPSIS":"546.234","EPOCH":"2022-08-10T15:13:38.927712","APOAPSIS":"548.238","COUNTRY_CODE":"US","DECAY_DATE":null,"EPHEMERIS_TYPE":"0","NORAD_CAT_ID":"46574","LAUNCH_DATE":"2020-10-06","ELEMENT_SET_NO":"999","ECCENTRICITY":"0.00014470","GP_ID":"209993165","RA_OF_ASC_NODE":"269.2272","CENTER_NAME":"EARTH","TLE_LINE1":"1 46574U 20070AU  22222.63447833 -.00000383  00000-0 -67870-5 0  9992","MEAN_MOTION_DDOT":"0.0000000000000","PERIOD":"95.593","OBJECT_ID":"2020-070AU","MEAN_MOTION":"15.06392805","SEMIMAJOR_AXIS":"6925.371","MEAN_MOTION_DOT":"-0.00000383","MEAN_ELEMENT_THEORY":"SGP4","RCS_SIZE":"LARGE","REF_FRAME":"TEME","SITE":"AFETR","TLE_LINE2":"2 46574  53.0551 269.2272 0001447  73.1352 286.9795 15.06392805102710","OBJECT_NAME":"STARLINK-1660","CLASSIFICATION_TYPE":"U"},{"NORAD_CAT_ID":"46575","LAUNCH_DATE":"2020-10-06","DECAY_DATE":null,"COUNTRY_CODE":"US","APOAPSIS":"548.443","EPHEMERIS_TYPE":"0","ECCENTRICITY":"0.00016990","GP_ID":"209964883","ELEMENT_SET_NO":"999","FILE":"3533800","ARG_OF_PERICENTER":"58.3771","TIME_SYSTEM":"UTC","INCLINATION":"53.0548","OBJECT_TYPE":"PAYLOAD","BSTAR":"-0.00007803300000","MEAN_ANOMALY":"301.7383","REV_AT_EPOCH":"10303","EPOCH":"2022-08-10T11:47:19.108896","PERIAPSIS":"546.090","REF_FRAME":"TEME","SITE":"AFETR","MEAN_ELEMENT_THEORY":"SGP4","RCS_SIZE":"LARGE","OBJECT_NAME":"STARLINK-1675","TLE_LINE2":"2 46575  53.0548 244.8735 0001699  58.3771 301.7383 15.06382672103035","CLASSIFICATION_TYPE":"U","MEAN_MOTION_DDOT":"0.0000000000000","OBJECT_ID":"2020-070AV","PERIOD":"95.593","CENTER_NAME":"EARTH","RA_OF_ASC_NODE":"244.8735","TLE_LINE1":"1 46575U 20070AV  22222.49119339 -.00001443  00000-0 -78033-4 0  9994","MEAN_MOTION_DOT":"-0.00001443","SEMIMAJOR_AXIS":"6925.402","MEAN_MOTION":"15.06382672"}];
